start=new Date('2022-05-29T00:00:00.000Z').valueOf();
sats=[{"ARG_OF_PERICENTER":"44.6827","FILE":"3469840","GP_ID":"204807041","MEAN_MOTION_DOT":"0.00001293","REV_AT_EPOCH":"1836","DECAY_DATE":null,"RCS_SIZE":"LARGE","REF_FRAME":"TEME","MEAN_ANOMALY":"315.4346","SEMIMAJOR_AXIS":"6917.861","TIME_SYSTEM":"UTC","INCLINATION":"53.2209","OBJECT_ID":"2022-010G","NORAD_CAT_ID":"51462","CLASSIFICATION_TYPE":"U","CENTER_NAME":"EARTH","EPOCH":"2022-05-28T20:37:33.506976","ELEMENT_SET_NO":"999","MEAN_ELEMENT_THEORY":"SGP4","BSTAR":"0.00009930500000","SITE":"AFETR","PERIAPSIS":"538.174","OBJECT_TYPE":"PAYLOAD","EPHEMERIS_TYPE":"0","APOAPSIS":"541.277","COUNTRY_CODE":"US","TLE_LINE2":"2 51462  53.2209 357.9015 0002243  44.6827 315.4346 15.08846477 18367","LAUNCH_DATE":"2022-02-03","PERIOD":"95.437","MEAN_MOTION_DDOT":"0.0000000000000","OBJECT_NAME":"STARLINK-3166","ECCENTRICITY":"0.00022430","TLE_LINE1":"1 51462U 22010G   22148.85941559  .00001293  00000-0  99305-4 0  9991","RA_OF_ASC_NODE":"357.9015","MEAN_MOTION":"15.08846477"},{"BSTAR":"0.00011641000000","MEAN_ELEMENT_THEORY":"SGP4","EPOCH":"2022-05-28T20:00:27.869760","ELEMENT_SET_NO":"999","CENTER_NAME":"EARTH","CLASSIFICATION_TYPE":"U","NORAD_CAT_ID":"51463","TLE_LINE2":"2 51463  53.2193 358.0109 0001813  49.5706 310.5445 15.08840416 18057","COUNTRY_CODE":"US","APOAPSIS":"540.998","EPHEMERIS_TYPE":"0","OBJECT_TYPE":"PAYLOAD","PERIAPSIS":"538.490","SITE":"AFETR","PERIOD":"95.438","LAUNCH_DATE":"2022-02-03","MEAN_MOTION":"15.08840416","TLE_LINE1":"1 51463U 22010H   22148.83365590  .00001565  00000-0  11641-3 0  9993","RA_OF_ASC_NODE":"358.0109","MEAN_MOTION_DDOT":"0.0000000000000","OBJECT_NAME":"STARLINK-3419","ECCENTRICITY":"0.00018130","GP_ID":"204805294","FILE":"3469840","ARG_OF_PERICENTER":"49.5706","REF_FRAME":"TEME","RCS_SIZE":"LARGE","DECAY_DATE":null,"MEAN_MOTION_DOT":"0.00001565","REV_AT_EPOCH":"1805","MEAN_ANOMALY":"310.5445","OBJECT_ID":"2022-010H","INCLINATION":"53.2193","TIME_SYSTEM":"UTC","SEMIMAJOR_AXIS":"6917.879"},{"LAUNCH_DATE":"2022-02-03","PERIOD":"95.437","ECCENTRICITY":"0.00019460","MEAN_MOTION_DDOT":"0.0000000000000","OBJECT_NAME":"STARLINK-3189","TLE_LINE1":"1 51464U 22010J   22148.85205578  .00002167  00000-0  15419-3 0  9991","RA_OF_ASC_NODE":"357.9296","MEAN_MOTION":"15.08846119","CLASSIFICATION_TYPE":"U","NORAD_CAT_ID":"51464","CENTER_NAME":"EARTH","MEAN_ELEMENT_THEORY":"SGP4","BSTAR":"0.00015419000000","EPOCH":"2022-05-28T20:26:57.619392","ELEMENT_SET_NO":"999","OBJECT_TYPE":"PAYLOAD","PERIAPSIS":"538.380","SITE":"AFETR","TLE_LINE2":"2 51464  53.2198 357.9296 0001946  50.6064 309.5100 15.08846119 18866","COUNTRY_CODE":"US","EPHEMERIS_TYPE":"0","APOAPSIS":"541.073","MEAN_ANOMALY":"309.5100","SEMIMAJOR_AXIS":"6917.862","TIME_SYSTEM":"UTC","INCLINATION":"53.2198","OBJECT_ID":"2022-010J","FILE":"3469840","ARG_OF_PERICENTER":"50.6064","GP_ID":"204806045","DECAY_DATE":null,"MEAN_MOTION_DOT":"0.00002167","REV_AT_EPOCH":"1886","REF_FRAME":"TEME","RCS_SIZE":"LARGE"},{"RCS_SIZE":"LARGE","REF_FRAME":"TEME","DECAY_DATE":null,"REV_AT_EPOCH":"1886","MEAN_MOTION_DOT":"0.00000766","GP_ID":"204806296","FILE":"3469840","ARG_OF_PERICENTER":"54.4234","INCLINATION":"53.2201","TIME_SYSTEM":"UTC","OBJECT_ID":"2022-010K","SEMIMAJOR_AXIS":"6917.872","MEAN_ANOMALY":"305.6940","TLE_LINE2":"2 51465  53.2201 357.9456 0001945  54.4234 305.6940 15.08842781 18860","COUNTRY_CODE":"US","EPHEMERIS_TYPE":"0","APOAPSIS":"541.082","PERIAPSIS":"538.391","OBJECT_TYPE":"PAYLOAD","SITE":"AFETR","BSTAR":"0.00006620500000","MEAN_ELEMENT_THEORY":"SGP4","ELEMENT_SET_NO":"999","EPOCH":"2022-05-28T20:21:39.997440","CLASSIFICATION_TYPE":"U","NORAD_CAT_ID":"51465","CENTER_NAME":"EARTH","MEAN_MOTION":"15.08842781","OBJECT_NAME":"STARLINK-3401","MEAN_MOTION_DDOT":"0.0000000000000","ECCENTRICITY":"0.00019450","RA_OF_ASC_NODE":"357.9456","TLE_LINE1":"1 51465U 22010K   22148.84837960  .00000766  00000-0  66205-4 0  9990","PERIOD":"95.437","LAUNCH_DATE":"2022-02-03"},{"MEAN_MOTION_DDOT":"0.0000000000000","OBJECT_NAME":"STARLINK-3178","ECCENTRICITY":"0.00023160","TLE_LINE1":"1 51467U 22010M   22148.82998747  .00001123  00000-0  88670-4 0  9999","RA_OF_ASC_NODE":"358.0433","MEAN_MOTION":"15.08835520","LAUNCH_DATE":"2022-02-03","PERIOD":"95.438","PERIAPSIS":"538.157","OBJECT_TYPE":"PAYLOAD","SITE":"AFETR","TLE_LINE2":"2 51467  53.2191 358.0433 0002316  40.4054 319.7110 15.08835520 18054","COUNTRY_CODE":"US","APOAPSIS":"541.361","EPHEMERIS_TYPE":"0","CLASSIFICATION_TYPE":"U","NORAD_CAT_ID":"51467","CENTER_NAME":"EARTH","MEAN_ELEMENT_THEORY":"SGP4","BSTAR":"0.00008867000000","EPOCH":"2022-05-28T19:55:10.917408","ELEMENT_SET_NO":"999","SEMIMAJOR_AXIS":"6917.894","INCLINATION":"53.2191","TIME_SYSTEM":"UTC","OBJECT_ID":"2022-010M","MEAN_ANOMALY":"319.7110","DECAY_DATE":null,"REV_AT_EPOCH":"1805","MEAN_MOTION_DOT":"0.00001123","RCS_SIZE":"LARGE","REF_FRAME":"TEME","FILE":"3469840","ARG_OF_PERICENTER":"40.4054","GP_ID":"204806541"},{"MEAN_MOTION":"15.08845246","RA_OF_ASC_NODE":"357.9845","TLE_LINE1":"1 51468U 22010N   22148.84101618  .00002216  00000-0  15726-3 0  9990","MEAN_MOTION_DDOT":"0.0000000000000","OBJECT_NAME":"STARLINK-3174","ECCENTRICITY":"0.00018150","PERIOD":"95.437","LAUNCH_DATE":"2022-02-03","TLE_LINE2":"2 51468  53.2209 357.9845 0001815  42.5375 317.5757 15.08845246 18051","COUNTRY_CODE":"US","EPHEMERIS_TYPE":"0","APOAPSIS":"540.985","OBJECT_TYPE":"PAYLOAD","PERIAPSIS":"538.474","SITE":"AFETR","MEAN_ELEMENT_THEORY":"SGP4","BSTAR":"0.00015726000000","ELEMENT_SET_NO":"999","EPOCH":"2022-05-28T20:11:03.797952","CENTER_NAME":"EARTH","CLASSIFICATION_TYPE":"U","NORAD_CAT_ID":"51468","OBJECT_ID":"2022-010N","TIME_SYSTEM":"UTC","INCLINATION":"53.2209","SEMIMAJOR_AXIS":"6917.864","MEAN_ANOMALY":"317.5757","RCS_SIZE":"LARGE","REF_FRAME":"TEME","DECAY_DATE":null,"MEAN_MOTION_DOT":"0.00002216","REV_AT_EPOCH":"1805","GP_ID":"204805795","FILE":"3469840","ARG_OF_PERICENTER":"42.5375"},{"GP_ID":"204805545","ARG_OF_PERICENTER":"37.5738","FILE":"3469840","REF_FRAME":"TEME","RCS_SIZE":"LARGE","MEAN_MOTION_DOT":"0.00004615","REV_AT_EPOCH":"1836","DECAY_DATE":null,"MEAN_ANOMALY":"322.5392","OBJECT_ID":"2022-010P","TIME_SYSTEM":"UTC","INCLINATION":"53.2184","SEMIMAJOR_AXIS":"6917.916","EPOCH":"2022-05-28T20:32:15.755424","ELEMENT_SET_NO":"999","BSTAR":"0.00030794000000","MEAN_ELEMENT_THEORY":"SGP4","CENTER_NAME":"EARTH","NORAD_CAT_ID":"51469","CLASSIFICATION_TYPE":"U","APOAPSIS":"541.154","EPHEMERIS_TYPE":"0","TLE_LINE2":"2 51469  53.2184 357.9121 0001985  37.5738 322.5392 15.08828339 18365","COUNTRY_CODE":"US","SITE":"AFETR","PERIAPSIS":"538.408","OBJECT_TYPE":"PAYLOAD","PERIOD":"95.438","LAUNCH_DATE":"2022-02-03","MEAN_MOTION":"15.08828339","RA_OF_ASC_NODE":"357.9121","TLE_LINE1":"1 51469U 22010P   22148.85573791  .00004615  00000-0  30794-3 0  9994","MEAN_MOTION_DDOT":"0.0000000000000","OBJECT_NAME":"STARLINK-3182","ECCENTRICITY":"0.00019850"},{"MEAN_MOTION":"15.08834738","ECCENTRICITY":"0.00017170","MEAN_MOTION_DDOT":"0.0000000000000","OBJECT_NAME":"STARLINK-3165","TLE_LINE1":"1 51471U 22010R   22148.86540451  .00000773  00000-0  66647-4 0  9993","RA_OF_ASC_NODE":"352.8718","PERIOD":"95.438","LAUNCH_DATE":"2022-02-03","TLE_LINE2":"2 51471  53.2183 352.8718 0001717  37.2831 322.8280 15.08834738 18434","COUNTRY_CODE":"US","APOAPSIS":"540.949","EPHEMERIS_TYPE":"0","PERIAPSIS":"538.574","OBJECT_TYPE":"PAYLOAD","SITE":"AFETR","MEAN_ELEMENT_THEORY":"SGP4","BSTAR":"0.00006664700000","ELEMENT_SET_NO":"999","EPOCH":"2022-05-28T20:46:10.949664","CLASSIFICATION_TYPE":"U","NORAD_CAT_ID":"51471","CENTER_NAME":"EARTH","TIME_SYSTEM":"UTC","INCLINATION":"53.2183","OBJECT_ID":"2022-010R","SEMIMAJOR_AXIS":"6917.896","MEAN_ANOMALY":"322.8280","REF_FRAME":"TEME","RCS_SIZE":"LARGE","DECAY_DATE":null,"MEAN_MOTION_DOT":"0.00000773","REV_AT_EPOCH":"1843","GP_ID":"204806797","FILE":"3469840","ARG_OF_PERICENTER":"37.2831"},{"ARG_OF_PERICENTER":"54.9353","FILE":"3469840","GP_ID":"204807042","REV_AT_EPOCH":"1836","MEAN_MOTION_DOT":"0.00002134","DECAY_DATE":null,"RCS_SIZE":"LARGE","REF_FRAME":"TEME","MEAN_ANOMALY":"305.1817","SEMIMAJOR_AXIS":"6917.848","TIME_SYSTEM":"UTC","INCLINATION":"53.2213","OBJECT_ID":"2022-010S","NORAD_CAT_ID":"51472","CLASSIFICATION_TYPE":"U","CENTER_NAME":"EARTH","ELEMENT_SET_NO":"999","EPOCH":"2022-05-28T20:05:45.336192","BSTAR":"0.00015211000000","MEAN_ELEMENT_THEORY":"SGP4","SITE":"AFETR","PERIAPSIS":"538.401","OBJECT_TYPE":"PAYLOAD","EPHEMERIS_TYPE":"0","APOAPSIS":"541.025","COUNTRY_CODE":"US","TLE_LINE2":"2 51472  53.2213 358.0036 0001897  54.9353 305.1817 15.08850571 18369","LAUNCH_DATE":"2022-02-03","PERIOD":"95.437","MEAN_MOTION_DDOT":"0.0000000000000","OBJECT_NAME":"STARLINK-3415","ECCENTRICITY":"0.00018970","TLE_LINE1":"1 51472U 22010S   22148.83733028  .00002134  00000-0  15211-3 0  9998","RA_OF_ASC_NODE":"358.0036","MEAN_MOTION":"15.08850571"},{"PERIOD":"95.436","LAUNCH_DATE":"2022-02-21","MEAN_MOTION":"15.08862332","OBJECT_NAME":"STARLINK-3528","MEAN_MOTION_DDOT":"0.0000000000000","ECCENTRICITY":"0.00020180","RA_OF_ASC_NODE":"47.6515","TLE_LINE1":"1 51714U 22016A   22148.91667824 -.00024421  00000-0 -15205-2 0  9999","MEAN_ELEMENT_THEORY":"SGP4","BSTAR":"-0.00152050000000","ELEMENT_SET_NO":"999","EPOCH":"2022-05-28T22:00:00.999936","CLASSIFICATION_TYPE":"U","NORAD_CAT_ID":"51714","CENTER_NAME":"EARTH","COUNTRY_CODE":"US","TLE_LINE2":"2 51714  53.2198  47.6515 0002018  46.0902  10.2566 15.08862332  1300","EPHEMERIS_TYPE":"0","APOAPSIS":"541.073","PERIAPSIS":"538.281","OBJECT_TYPE":"PAYLOAD","SITE":"AFETR","MEAN_ANOMALY":"10.2566","TIME_SYSTEM":"UTC","INCLINATION":"53.2198","OBJECT_ID":"2022-016A","SEMIMAJOR_AXIS":"6917.812","GP_ID":"204807058","FILE":"3469840","ARG_OF_PERICENTER":"46.0902","REF_FRAME":"TEME","RCS_SIZE":"LARGE","DECAY_DATE":null,"REV_AT_EPOCH":"130","MEAN_MOTION_DOT":"-0.00024421"}];
